$$SOE
2460721.500000000, A.D. 2025-Feb-15 00:00:00.0000, -2.134981149772548E+08, -2.305873976980150E+08, -8.731701879214123E+06,
2460728.500000000, A.D. 2025-Feb-22 00:00:00.0000, -2.084905414252598E+08, -2.417070392006499E+08, -1.179621836140613E+07,
2460735.500000000, A.D. 2025-Mar-01 00:00:00.0000, -2.031722910895737E+08, -2.524667654722020E+08, -1.484319617699540E+07,
2460742.500000000, A.D. 2025-Mar-08 00:00:00.0000, -1.975650256766338E+08, -2.628676073183586E+08, -1.786909715036668E+07,
2460749.500000000, A.D. 2025-Mar-15 00:00:00.0000, -1.916891078490475E+08, -2.729112453944002E+08, -2.087073621145031E+07,
2460756.500000000, A.D. 2025-Mar-22 00:00:00.0000, -1.855636830085465E+08, -2.825998975759338E+08, -2.384524521089634E+07,
2460763.500000000, A.D. 2025-Mar-29 00:00:00.0000, -1.792067575925209E+08, -2.919362246763724E+08, -2.679004059220374E+07,
2460770.500000000, A.D. 2025-Apr-05 00:00:00.0000, -1.726352728021426E+08, -3.009232492036334E+08, -2.970279439663042E+07,
2460777.500000000, A.D. 2025-Apr-12 00:00:00.0000, -1.658651751978326E+08, -3.095642851466479E+08, -3.258140812479936E+07,
2460784.500000000, A.D. 2025-Apr-19 00:00:00.0000, -1.589114840601043E+08, -3.178628780081562E+08, -3.542398923187953E+07,
2460791.500000000, A.D. 2025-Apr-26 00:00:00.0000, -1.517883551044955E+08, -3.258227538379545E+08, -3.822883003647274E+07,
2460798.500000000, A.D. 2025-May-03 00:00:00.0000, -1.445091404062920E+08, -3.334477759911610E+08, -4.099438880915835E+07,
2460805.500000000, A.D. 2025-May-10 00:00:00.0000, -1.370864445538504E+08, -3.407419085174572E+08, -4.371927281899384E+07,
2460812.500000000, A.D. 2025-May-17 00:00:00.0000, -1.295321770956799E+08, -3.477091852883778E+08, -4.640222314088809E+07,
2460819.500000000, A.D. 2025-May-24 00:00:00.0000, -1.218576012478159E+08, -3.543536841169901E+08, -4.904210106054203E+07,
2460826.500000000, A.D. 2025-May-31 00:00:00.0000, -1.140733786119144E+08, -3.606795048738494E+08, -5.163787592519264E+07,
2460833.500000000, A.D. 2025-Jun-07 00:00:00.0000, -1.061896104903262E+08, -3.666907498047328E+08, -5.418861415687290E+07,
2460840.500000000, A.D. 2025-Jun-14 00:00:00.0000, -9.821587835397220E+07, -3.723915062072264E+08, -5.669346913220821E+07,
2460847.500000000, A.D. 2025-Jun-21 00:00:00.0000, -9.016128243596640E+07, -3.777858342993664E+08, -5.915167218792842E+07,
2460854.500000000, A.D. 2025-Jun-28 00:00:00.0000, -8.203447550951205E+07, -3.828777581424177E+08, -6.156252478851263E+07,
2460861.500000000, A.D. 2025-Jul-05 00:00:00.0000, -7.384369354936738E+07, -3.876712571417153E+08, -6.392539144616312E+07,
2460868.500000000, A.D. 2025-Jul-12 00:00:00.0000, -6.559678464357387E+07, -3.921702586554033E+08, -6.623969326540311E+07,
2460875.500000000, A.D. 2025-Jul-19 00:00:00.0000, -5.730123613302768E+07, -3.963786320486294E+08, -6.850490210135627E+07,
2460882.500000000, A.D. 2025-Jul-26 00:00:00.0000, -4.896419992641557E+07, -4.003001840449499E+08, -7.072053528813919E+07,
2460889.500000000, A.D. 2025-Aug-02 00:00:00.0000, -4.059251607206558E+07, -4.039386551771886E+08, -7.288615088132074E+07,
2460896.500000000, A.D. 2025-Aug-09 00:00:00.0000, -3.219273470010730E+07, -4.072977172019332E+08, -7.500134336420694E+07,
2460903.500000000, A.D. 2025-Aug-16 00:00:00.0000, -2.377113638579799E+07, -4.103809714125827E+08, -7.706573978256273E+07,
2460910.500000000, A.D. 2025-Aug-23 00:00:00.0000, -1.533375076067392E+07, -4.131919477244261E+08, -7.907899629074249E+07,
2460917.500000000, A.D. 2025-Aug-30 00:00:00.0000, -6.886373153387638E+06, -4.157341037229843E+08, -8.104079504295650E+07,
2460924.500000000, A.D. 2025-Sep-06 00:00:00.0000, 1.565419219088825E+06, -4.180108225933564E+08, -8.295084118361592E+07,
2460931.500000000, A.D. 2025-Sep-13 00:00:00.0000, 1.001624974497119E+07, -4.200254123420695E+08, -8.480885995559147E+07,
2460938.500000000, A.D. 2025-Sep-20 00:00:00.0000, 1.846092678309155E+07, -4.217811078954089E+08, -8.661459433374068E+07,
2460945.500000000, A.D. 2025-Sep-27 00:00:00.0000, 2.689443087904514E+07, -4.232810729127561E+08, -8.836780300268000E+07,
2460952.500000000, A.D. 2025-Oct-04 00:00:00.0000, 3.531190274092547E+07, -4.245284007330172E+08, -9.006825842841178E+07,
2460959.500000000, A.D. 2025-Oct-11 00:00:00.0000, 4.370863153219660E+07, -4.255261153599571E+08, -9.171574504734147E+07,
2460966.500000000, A.D. 2025-Oct-18 00:00:00.0000, 5.208004370193530E+07, -4.262771727287903E+08, -9.331005760384825E+07,
2460973.500000000, A.D. 2025-Oct-25 00:00:00.0000, 6.042169243346937E+07, -4.267844622153702E+08, -9.485099963279149E+07,
2460980.500000000, A.D. 2025-Nov-01 00:00:00.0000, 6.872924769716550E+07, -4.270508083486633E+08, -9.633838207540509E+07,
2460987.500000000, A.D. 2025-Nov-08 00:00:00.0000, 7.699848689286540E+07, -4.270789727379735E+08, -9.777202202206978E+07,
2460994.500000000, A.D. 2025-Nov-15 00:00:00.0000, 8.522528618464603E+07, -4.268716562574560E+08, -9.915174158967635E+07,
2461001.500000000, A.D. 2025-Nov-22 00:00:00.0000, 9.340561288839565E+07, -4.264315012551329E+08, -1.004773669431907E+08,
2461008.500000000, A.D. 2025-Nov-29 00:00:00.0000, 1.015355187193708E+08, -4.257610926410008E+08, -1.017487273461806E+08,
2461015.500000000, A.D. 2025-Dec-06 00:00:00.0000, 1.096111315852271E+08, -4.248629579809531E+08, -1.029656540346453E+08,
2461022.500000000, A.D. 2025-Dec-13 00:00:00.0000, 1.176286463242369E+08, -4.237395699583078E+08, -1.041279792220088E+08,
2461029.500000000, A.D. 2025-Dec-20 00:00:00.0000, 1.255843178511637E+08, -4.223933501738523E+08, -1.052355354658328E+08,
2461036.500000000, A.D. 2025-Dec-27 00:00:00.0000, 1.334744556078491E+08, -4.208266716898683E+08, -1.062881550806730E+08,
2461043.500000000, A.D. 2026-Jan-03 00:00:00.0000, 1.412954178310416E+08, -4.190418609309679E+08, -1.072856695083272E+08,
2461050.500000000, A.D. 2026-Jan-10 00:00:00.0000, 1.490436057204465E+08, -4.170411996175808E+08, -1.082279087056850E+08,
2461057.500000000, A.D. 2026-Jan-17 00:00:00.0000, 1.567154577148373E+08, -4.148269268204726E+08, -1.091147005737063E+08,
2461064.500000000, A.D. 2026-Jan-24 00:00:00.0000, 1.643074439319728E+08, -4.124012411108572E+08, -1.099458704279770E+08,
2461071.500000000, A.D. 2026-Jan-31 00:00:00.0000, 1.718160607761389E+08, -4.097663028120899E+08, -1.107212405096818E+08,
2461078.500000000, A.D. 2026-Feb-07 00:00:00.0000, 1.792378257571603E+08, -4.069242364110870E+08, -1.114406295446181E+08,
2461085.500000000, A.D. 2026-Feb-14 00:00:00.0000, 1.865692727570978E+08, -4.038771331481167E+08, -1.121038523730358E+08,
2461092.500000000, A.D. 2026-Feb-21 00:00:00.0000, 1.938069481150968E+08, -4.006270532131341E+08, -1.127107196374158E+08,
2461099.500000000, A.D. 2026-Feb-28 00:00:00.0000, 2.009474064278305E+08, -3.971760264008163E+08, -1.132610373328770E+08,
2461106.500000000, A.D. 2026-Mar-07 00:00:00.0000, 2.079872039891551E+08, -3.935260531788216E+08, -1.137546061885542E+08,
2461113.500000000, A.D. 2026-Mar-14 00:00:00.0000, 2.149228926283002E+08, -3.896791085056351E+08, -1.141912213227533E+08,
2461120.500000000, A.D. 2026-Mar-21 00:00:00.0000, 2.217510157150882E+08, -3.856371455052073E+08, -1.145706720968806E+08,
2461127.500000000, A.D. 2026-Mar-28 00:00:00.0000, 2.284681043089793E+08, -3.814020979767446E+08, -1.148927418986425E+08,
2461134.500000000, A.D. 2026-Apr-04 00:00:00.0000, 2.350706728344719E+08, -3.769758827129674E+08, -1.151572078770224E+08,
2461141.500000000, A.D. 2026-Apr-11 00:00:00.0000, 2.415552145433798E+08, -3.723604019950358E+08, -1.153638406826748E+08,
2461148.500000000, A.D. 2026-Apr-18 00:00:00.0000, 2.479181969102612E+08, -3.675575462799297E+08, -1.155124042282079E+08,
2461155.500000000, A.D. 2026-Apr-25 00:00:00.0000, 2.541560569940261E+08, -3.625691970754785E+08, -1.156026554708201E+08,
2461162.500000000, A.D. 2026-May-02 00:00:00.0000, 2.602651967837745E+08, -3.573972300431239E+08, -1.156343442220774E+08,
2461169.500000000, A.D. 2026-May-09 00:00:00.0000, 2.662419786413834E+08, -3.520435184056759E+08, -1.156072130014390E+08,
2461176.500000000, A.D. 2026-May-16 00:00:00.0000, 2.720827212076399E+08, -3.465099365341739E+08, -1.155209969572600E+08,
2461183.500000000, A.D. 2026-May-23 00:00:00.0000, 2.777836958129299E+08, -3.407983627063273E+08, -1.153754237775880E+08,
2461190.500000000, A.D. 2026-May-30 00:00:00.0000, 2.833411213021811E+08, -3.349106807336776E+08, -1.151702133753528E+08,
2461197.500000000, A.D. 2026-Jun-06 00:00:00.0000, 2.887511569436288E+08, -3.288487837476443E+08, -1.149050775873340E+08,
2461204.500000000, A.D. 2026-Jun-13 00:00:00.0000, 2.940098970748686E+08, -3.226145799623488E+08, -1.145797202080572E+08,
2461211.500000000, A.D. 2026-Jun-20 00:00:00.0000, 2.991133669739354E+08, -3.162099975076774E+08, -1.141938370757365E+08,
2461218.500000000, A.D. 2026-Jun-27 00:00:00.0000, 3.040575182456744E+08, -3.096369886947766E+08, -1.137471160851079E+08,
2461225.500000000, A.D. 2026-Jul-04 00:00:00.0000, 3.088382237114995E+08, -3.028975345131240E+08, -1.132392371936273E+08,
2461232.500000000, A.D. 2026-Jul-11 00:00:00.0000, 3.134512720445879E+08, -2.959936495174804E+08, -1.126698724586742E+08,
2461239.500000000, A.D. 2026-Jul-18 00:00:00.0000, 3.178923622313063E+08, -2.889273871079953E+08, -1.120386861162345E+08,
2461246.500000000, A.D. 2026-Jul-25 00:00:00.0000, 3.221570978711141E+08, -2.817008452326314E+08, -1.113453347075924E+08,
2461253.500000000, A.D. 2026-Aug-01 00:00:00.0000, 3.262409813503739E+08, -2.743161725946718E+08, -1.105894672671901E+08,
2461260.500000000, A.D. 2026-Aug-08 00:00:00.0000, 3.301394080923400E+08, -2.667755754383872E+08, -1.097707255994553E+08,
2461267.500000000, A.D. 2026-Aug-15 00:00:00.0000, 3.338476612871613E+08, -2.590813245031985E+08, -1.088887446520048E+08,
2461274.500000000, A.D. 2026-Aug-22 00:00:00.0000, 3.373609063311261E+08, -2.512357609714870E+08, -1.079431528232644E+08,
2461281.500000000, A.D. 2026-Aug-29 00:00:00.0000, 3.406741826755892E+08, -2.432413028350077E+08, -1.069335721152394E+08,
$$EOE